<osm version="0.6">
	<node id="0" x="7.8" y="74"/>
	<node id="1" x="74.4" y="74"/>
	<node id="2" x="121" y="74.2"/>
	<node id="3" x="222.5" y="75.5"/>
	<node id="4" x="157.7" y="75.1">
		<tag k="highway" v="traffic_signals"/>
	</node>
	<node id="5" x="121.3" y="21.1"/>
	<node id="6" x="223" y="21.4"/>
	<controller green="20" id="0" yellow="3">
		<sync>
			<nd ref="4"/>
		</sync>
	</controller>
	<way id="0">
		<nd ref="0"/>
		<nd ref="1"/>
		<nd ref="2"/>
		<tag k="highway" v="residential"/>
		<tag k="name" v="W0"/>
		<tag k="maxspeed" v="50"/>
		<tag k="oneway" v="no"/>
		<tag k="lanes" v="2"/>
		<tag k="lanes:forward" v="1"/>
		<tag k="lanes:backward" v="1"/>
	</way>
	<way id="1">
		<nd ref="3"/>
		<nd ref="4"/>
		<nd ref="2"/>
		<tag k="highway" v="residential"/>
		<tag k="name" v="W1"/>
		<tag k="maxspeed" v="50"/>
		<tag k="oneway" v="no"/>
		<tag k="lanes" v="2"/>
		<tag k="lanes:forward" v="1"/>
		<tag k="lanes:backward" v="1"/>
	</way>
	<way id="2">
		<nd ref="2"/>
		<nd ref="5"/>
		<tag k="highway" v="residential"/>
		<tag k="name" v="W2"/>
		<tag k="maxspeed" v="50"/>
		<tag k="oneway" v="no"/>
		<tag k="lanes" v="2"/>
		<tag k="lanes:forward" v="1"/>
		<tag k="lanes:backward" v="1"/>
	</way>
	<way id="3">
		<nd ref="3"/>
		<nd ref="6"/>
		<nd ref="5"/>
		<tag k="highway" v="residential"/>
		<tag k="name" v="W3"/>
		<tag k="maxspeed" v="50"/>
		<tag k="oneway" v="no"/>
		<tag k="lanes" v="2"/>
		<tag k="lanes:forward" v="1"/>
		<tag k="lanes:backward" v="1"/>
	</way>
</osm>